FALCONSAT-6             
1 43815U 18099BK  26068.72544389  .00005029  00000+0  19477-3 0  9998
2 43815  97.3865 145.8165 0014370 297.0944 181.0714 15.26532865398556
STARLINK-36418          
1 67422U 26005U   26068.51705146  .00025836  00000+0  94444-3 0  9996
2 67422  43.0021 238.6486 0001818 284.6926  75.3724 15.27602228  8679
